STARLINK-31739          
1 59766U 24091P   26068.28389085 -.00001053  00000+0 -23421-4 0  9990
2 59766  53.1623  25.8419 0001211  82.7777 277.3361 15.30194066102981
SCS-01 D                
1 63985U 25100D   26068.75607686  .00032471  00000+0  10528-2 0  9990
2 63985  97.3730 145.4097 0006346 266.2302  93.8214 15.31902149 45621
